[{"OBJECT_NAME":"STARLINK-5398","OBJECT_ID":"2022-177AY","EPOCH":"2026-03-09T22:00:01.999584","MEAN_MOTION":15.07643149,"ECCENTRICITY":0.00027169,"INCLINATION":43.0018,"RA_OF_ASC_NODE":118.7174,"ARG_OF_PERICENTER":266.7762,"MEAN_ANOMALY":95.2321,"EPHEMERIS_TYPE":0,"CLASSIFICATION_TYPE":"U","NORAD_CAT_ID":54866,"ELEMENT_SET_NO":999,"REV_AT_EPOCH":562,"BSTAR":0.0039623741,"MEAN_MOTION_DOT":0.00061728,"MEAN_MOTION_DDOT":0},{"OBJECT_NAME":"OBJECT L","OBJECT_ID":"2024-205L","EPOCH":"2026-03-07T03:22:40.585728","MEAN_MOTION":15.10822925,"ECCENTRICITY":0.00547724,"INCLINATION":97.4213,"RA_OF_ASC_NODE":140.2188,"ARG_OF_PERICENTER":346.2042,"MEAN_ANOMALY":13.7688,"EPHEMERIS_TYPE":0,"CLASSIFICATION_TYPE":"U","NORAD_CAT_ID":61904,"ELEMENT_SET_NO":999,"REV_AT_EPOCH":7282,"BSTAR":0.00079283043,"MEAN_MOTION_DOT":0.00013606,"MEAN_MOTION_DDOT":0}]
